ONEWEB-0709             
1 55172U 23004AJ  25304.77180843 -.00000089  00000+0 -28788-3 0  9995
2 55172  87.8842  66.5750 0002593  95.4467 264.6957 13.11420147135936
ONEWEB-0710             
1 55173U 23004AK  25304.78778738  .00000078  00000+0  16786-3 0  9994
2 55173  87.9120  51.2908 0001609  95.3971 264.7344 13.17650691137500
ONEWEB-0711             
1 55174U 23004AL  25304.59037824 -.00000319  00000+0 -93650-3 0  9993
2 55174  87.8856  66.5825 0001232  73.8637 286.2626 13.11413557135877
ONEWEB-0713             
1 55175U 23004AM  25304.83792977 -.00000362  00000+0 -10562-2 0  9996
2 55175  87.8842  66.5367 0001460  90.4455 269.6840 13.11419346135897
ONEWEB-0715             
1 55176U 23004AN  25304.83284822 -.00000469  00000+0 -13593-2 0  9997
2 55176  87.8843  66.5372 0002257  86.9184 273.2202 13.11417628135938
ONEWEB-0716             
1 55177U 23004AP  25304.78103353 -.00000011  00000+0 -60352-4 0  9991
2 55177  87.9132  51.2927 0001776 108.1620 251.9705 13.17649727137504
ONEWEB-0717             
1 55178U 23004AQ  25304.84009522  .00000601  00000+0  15152-2 0  9991
2 55178  87.9132  51.2471 0001498  78.9995 281.1305 13.17649963137568
ONEWEB-0719             
1 55179U 23004AR  25304.77428532  .00000092  00000+0  20325-3 0  9993
2 55179  87.9130  51.2431 0001573 108.3874 251.7428 13.17651572137503
ONEWEB-0530             
1 55796U 23029A   25304.60798321  .00000169  00000+0  38452-3 0  9998
2 55796  87.9192 320.0727 0001477  80.2159 279.9141 13.20770544130971
ONEWEB-0534             
1 55797U 23029B   25304.59535895  .00000102  00000+0  21974-3 0  9990
2 55797  87.9185 320.0769 0001872  96.6835 263.4511 13.20770684130975
ONEWEB-0556             
1 55798U 23029C   25304.75317991  .00000158  00000+0  35682-3 0  9996
2 55798  87.9192 320.0436 0001292 110.9054 249.2218 13.20770913130997
ONEWEB-0562             
1 55799U 23029D   25304.58903740  .00000016  00000+0  85546-5 0  9990
2 55799  87.9188 320.0604 0000967  83.2901 276.8342 13.20772383130976
ONEWEB-0563             
1 55800U 23029E   25304.80999881  .00000024  00000+0  26156-4 0  9999
2 55800  87.9195 320.0415 0001905 103.1125 257.0221 13.20770428130997
ONEWEB-0564             
1 55801U 23029F   25304.80368962 -.00000011  00000+0 -57928-4 0  9999
2 55801  87.9191 320.0215 0001518  87.3496 272.7811 13.20771455131009
ONEWEB-0638             
1 55802U 23029G   25304.81135044 -.00000528  00000+0 -14579-2 0  9990
2 55802  87.9004 335.2684 0001454 102.8070 257.3223 13.14501596129396
ONEWEB-0639             
1 55803U 23029H   25304.82337632  .00000096  00000+0  20724-3 0  9997
2 55803  87.9231 350.4213 0002833 113.7902 246.3528 13.19725943128780
ONEWEB-0640             
1 55804U 23029J   25304.82086928 -.00000108  00000+0 -32517-3 0  9996
2 55804  87.9007 335.2519 0001670 120.8744 239.2550 13.14504098129411
ONEWEB-0641             
1 55805U 23029K   25304.59118340 -.00000019  00000+0 -79135-4 0  9994
2 55805  87.9243 350.4443 0002092 101.5467 258.5901 13.19725693128768
ONEWEB-0642             
1 55806U 23029L   25304.58644613 -.00000033  00000+0 -11431-3 0  9991
2 55806  87.9234 350.4729 0002743 106.5896 253.5538 13.19725716128756
ONEWEB-0643             
1 55807U 23029M   25304.79073613  .00000114  00000+0  27203-3 0  9993
2 55807  87.9009 335.2430 0002568  96.6450 263.4972 13.14504515129386
ONEWEB-0644             
1 55808U 23029N   25304.65752066  .00000042  00000+0  72334-4 0  9991
2 55808  87.9231 350.4676 0002374 103.1925 256.9473 13.19724952128769
ONEWEB-0645             
1 55809U 23029P   25304.66076706 -.00000017  00000+0 -76375-4 0  9996
2 55809  87.9229 350.4534 0002098 111.4152 248.7203 13.18130402128767
ONEWEB-0646             
1 55810U 23029Q   25304.69699368  .00000109  00000+0  23894-3 0  9993
2 55810  87.9233 350.4437 0002183 100.5647 259.5732 13.19722845128754
ONEWEB-0648             
1 55811U 23029R   25304.83514819  .00000167  00000+0  41572-3 0  9994
2 55811  87.8997 335.1972 0002516 115.6053 244.5337 13.14501633129394
ONEWEB-0649             
1 55812U 23029S   25304.64646929  .00000023  00000+0  24473-4 0  9995
2 55812  87.9238 350.4483 0002206 107.6836 252.4538 13.19725235128781
ONEWEB-0650             
1 55813U 23029T   25304.64172701  .00000030  00000+0  43441-4 0  9992
2 55813  87.9231 350.4579 0002099 100.2787 259.8582 13.19726061128750
ONEWEB-0652             
1 55814U 23029U   25304.81611683 -.00000117  00000+0 -34943-3 0  9993
2 55814  87.9008 335.2215 0001747  90.6041 269.5289 13.14503234129365
ONEWEB-0653             
1 55815U 23029V   25304.64803598 -.00000158  00000+0 -46021-3 0  9998
2 55815  87.9009 335.2448 0001634  97.6221 262.5095 13.14501617129379
ONEWEB-0654             
1 55816U 23029W   25304.79549705 -.00000048  00000+0 -16482-3 0  9998
2 55816  87.9010 335.2145 0001558  87.2745 272.8563 13.14504241129412
ONEWEB-0656             
1 55817U 23029X   25304.79737613 -.00000131  00000+0 -35469-3 0  9995
2 55817  87.9202 319.9755 0001573  81.5410 278.5902 13.20771378131007
ONEWEB-0657             
1 55818U 23029Y   25304.63697506 -.00000025  00000+0 -94854-4 0  9991
2 55818  87.9231 350.4614 0002179  76.4380 283.6996 13.19722324128760
ONEWEB-0658             
1 55819U 23029Z   25304.63224751  .00000036  00000+0  56514-4 0  9991
2 55819  87.9248 350.4085 0002376 102.1626 257.9773 13.19725636128777
ONEWEB-0660             
1 55820U 23029AA  25304.54494135  .00000241  00000+0  61669-3 0  9992
2 55820  87.9018 335.2400 0001834 105.8968 254.2364 13.14504347129364
ONEWEB-0661             
1 55821U 23029AB  25304.80819095 -.00000254  00000+0 -71857-3 0  9994
2 55821  87.9011 335.2573 0001773 105.8367 254.2958 13.14500629129384
ONEWEB-0662             
1 55822U 23029AC  25304.61472441  .00000226  00000+0  57421-3 0  9992
2 55822  87.9013 335.3006 0001941 105.6751 254.4593 13.14500856129403
ONEWEB-0663             
1 55823U 23029AD  25304.77094113  .00000086  00000+0  17857-3 0  9999
2 55823  87.9210 320.0435 0002099 104.4224 255.7142 13.20849879130995
ONEWEB-0664             
1 55824U 23029AE  25304.55747419  .00000139  00000+0  31117-3 0  9994
2 55824  87.9193 320.0984 0001523 100.1046 260.0260 13.20770459130965
ONEWEB-0665             
1 55825U 23029AF  25304.80501926 -.00000166  00000+0 -48359-3 0  9992
2 55825  87.9015 335.2343 0001998 104.0009 256.1343 13.14501717129401
ONEWEB-0666             
1 55826U 23029AG  25304.55115863  .00000175  00000+0  39738-3 0  9995
2 55826  87.9188 320.0882 0002088  69.5838 290.5520 13.20771597130974
ONEWEB-0667             
1 55827U 23029AH  25304.77210073  .00000124  00000+0  27260-3 0  9990
2 55827  87.9198 319.9737 0001813  98.2419 261.8920 13.20769631130994
ONEWEB-0669             
1 55828U 23029AJ  25304.54011411  .00000050  00000+0  90499-4 0  9994
2 55828  87.9191 320.0581 0001291  79.2456 280.8823 13.20772389130962
ONEWEB-0670             
1 55829U 23029AK  25304.63058287  .00000163  00000+0  40479-3 0  9994
2 55829  87.9016 335.2886 0001653 105.5241 254.6072 13.14503051129405
ONEWEB-0671             
1 55830U 23029AL  25304.62751169  .00000027  00000+0  34838-4 0  9996
2 55830  87.9233 350.4575 0001873 103.0218 257.1124 13.19726591128757
ONEWEB-0672             
1 55831U 23029AM  25304.76265682  .00000188  00000+0  42933-3 0  9994
2 55831  87.9188 319.9946 0001824  83.7434 276.3907 13.20771101130999
ONEWEB-0673             
1 55832U 23029AN  25304.83127221  .00000053  00000+0  99625-4 0  9991
2 55832  87.9251 350.3906 0002109  99.2837 260.8534 13.19725997128780
ONEWEB-0674             
1 55833U 23029AP  25304.59885031 -.00000304  00000+0 -85359-3 0  9994
2 55833  87.9006 335.2753 0001544 108.3845 251.7452 13.14502161129380
ONEWEB-0675             
1 55834U 23029AQ  25304.69541725  .00000102  00000+0  22207-3 0  9992
2 55834  87.9233 350.4541 0002072  91.0713 269.0657 13.19724872128788
ONEWEB-0720             
1 55835U 23029AR  25304.68753038  .00000049  00000+0  90093-4 0  9993
2 55835  87.9236 350.4531 0002209 106.1026 254.0350 13.19725611128706
ONEWEB-0537             
1 56046U 23043A   25304.67173289  .00000067  00000+0  14188-3 0  9997
2 56046  87.9002 274.2846 0001989  77.8039 282.3315 13.16594730128894
ONEWEB-0538             
1 56047U 23043B   25304.66541087  .00000067  00000+0  14180-3 0  9994
2 56047  87.8988 274.2929 0002215  83.0752 277.0631 13.16594690128902
ONEWEB-0546             
1 56048U 23043C   25304.65273634  .00000003  00000+0 -25394-4 0  9995
2 56048  87.9002 274.2823 0002043  64.2020 295.9322 13.16595003128895
ONEWEB-0547             
1 56049U 23043D   25304.72142999  .00000014  00000+0  15138-5 0  9990
2 56049  87.9174 289.5517 0002053  90.4328 269.7041 13.21825795128042
ONEWEB-0548             
1 56050U 23043E   25304.45008141  .00000234  00000+0  57753-3 0  9993
2 56050  87.8985 274.3367 0001432  89.7442 270.3853 13.16595907128868
ONEWEB-0549             
1 56051U 23043F   25304.71400747 -.00000025  00000+0 -91080-4 0  9993
2 56051  87.9168 289.5687 0002172  90.3334 269.8049 13.21824152128049
ONEWEB-0550             
1 56052U 23043G   25304.70086763  .00000091  00000+0  18943-3 0  9998
2 56052  87.9171 289.5658 0001744  87.6202 272.5132 13.21826487128046
ONEWEB-0551             
1 56053U 23043H   25304.52691133  .00000163  00000+0  39759-3 0  9990
2 56053  87.8960 304.8662 0002076  97.9873 262.1493 13.15549822126338
ONEWEB-0552             
1 56054U 23043J   25304.69592839  .00000084  00000+0  17231-3 0  9995
2 56054  87.9171 289.5758 0002013  95.9161 264.2202 13.21829097128041
ONEWEB-0553             
1 56055U 23043K   25304.65907344  .00000075  00000+0  16303-3 0  9992
2 56055  87.8991 274.2925 0001810  73.1454 286.9876 13.16595594128904
ONEWEB-0554             
1 56056U 23043L   25304.64639891 -.00000016  00000+0 -76679-4 0  9991
2 56056  87.8979 274.3144 0001636  85.1767 274.9550 13.16592047128884
